{"_default": { "13": {"norad_id": "41847", "name": "CZ-11 R/B", "tle1": "1 41847U 16066G   26163.80788914  .00001644  00000-0  23742-3 0  9992", "tle2": "2 41847  98.3820 239.5941 0342652 142.7227 219.8287 14.44680695504166", "object_type": "ROCKET_BODY", "criticality_score": 9.0, "last_updated": "2026-06-13T11:16:06.819600+00:00", "maneuver_count": 0, "owner": "PRC"}, "14": {"norad_id": "41789", "name": "ALSAT 1N", "tle1": "1 41789U 16059G   26163.82523804  .00000689  00000-0  12413-3 0  9997", "tle2": "2 41789  97.8008 167.3699 0025106 198.9360 161.0915 14.69299545519365", "object_type": "PAYLOAD", "criticality_score": 9.0, "last_updated": "2026-06-13T11:16:06.819600+00:00", "maneuver_count": 0, "owner": "ALG"}, "15": {"norad_id": "41599", "name": "CARTOSAT 2C", "tle1": "1 41599U 16040A   26163.84523231  .00004697  00000-0  22563-3 0  9992", "tle2": "2 41599  97.4489 223.8830 0010146 144.9117 215.2788 15.19282908553052", "object_type": "PAYLOAD", "criticality_score": 9.0, "last_updated": "2026-06-13T11:16:06.819600+00:00", "maneuver_count": 0, "owner": "IND"}, "47": {"norad_id": "41339", "name": "CHUBUSAT 3", "tle1": "1 41339U 16012C   26163.86652244  .00004986  00000-0  23026-3 0  9998", "tle2": "2 41339  31.0059 359.2212 0009248  21.0769 339.0251 15.18522588567547", "object_type": "PAYLOAD", "criticality_score": 9.0, "last_updated": "2026-06-13T11:16:06.819600+00:00", "maneuver_count": 0, "owner": "JPN"}, "49": {"norad_id": "40967", "name": "FOX-1", "tle1": "1 40967U 15058D   26162.71824684  .00002264  00000-0  20997-3 0  9996", "tle2": "2 40967  64.7758 295.9784 0130128  58.7261 302.6519 14.90943463112758", "object_type": "PAYLOAD", "criticality_score": 9.0, "last_updated": "2026-06-13T11:16:06.819600+00:00", "maneuver_count": 0, "owner": "US"}, "50": {"norad_id": "40958", "name": "LQSAT", "tle1": "1 40958U 15057A   26163.86893648  .00000384  00000-0  61639-4 0  9998", "tle2": "2 40958  97.6677 157.4572 0015572 289.2010  70.7515 14.76777732574678", "object_type": "PAYLOAD", "criticality_score": 9.0, "last_updated": "2026-06-13T11:16:06.819600+00:00", "maneuver_count": 0, "owner": "PRC"}, "109": {"norad_id": "41783", "name": "PRATHAM", "tle1": "1 41783U 16059A   26163.26514664  .00000574  00000-0  10968-3 0  9999", "tle2": "2 41783  97.8323 160.3391 0030004 232.7139 127.1330 14.67188902518797", "object_type": "PAYLOAD", "criticality_score": 9.0, "last_updated": "2026-06-13T11:16:06.819600+00:00", "maneuver_count": 0, "owner": "IND"}, "138": {"norad_id": "41603", "name": "LAPAN A3", "tle1": "1 41603U 16040E   26163.88333584  .00003576  00000-0  11407-3 0  9992", "tle2": "2 41603  97.1483 160.1703 0011370  40.0799 320.1281 15.33078821554152", "object_type": "PAYLOAD", "criticality_score": 9.0, "last_updated": "2026-06-13T11:16:06.819600+00:00", "maneuver_count": 0, "owner": "INDO"}, "139": {"norad_id": "41340", "name": "HORYU-4", "tle1": "1 41340U 16012D   26163.17820750  .00381515  49653-4  10938-2 0  9997", "tle2": "2 41340  30.9835 115.7146 0003837 236.1046 123.9250 15.91940402570010", "object_type": "PAYLOAD", "criticality_score": 9.0, "last_updated": "2026-06-13T11:16:06.819600+00:00", "maneuver_count": 0, "owner": "JPN"}, "140": {"norad_id": "41338", "name": "CHUBUSAT 2", "tle1": "1 41338U 16012B   26163.81307856  .00006229  00000-0  26983-3 0  9995", "tle2": "2 41338  30.9980 350.0920 0008867  32.4187 327.6998 15.20837979567758", "object_type": "PAYLOAD", "criticality_score": 9.0, "last_updated": "2026-06-13T11:16:06.819600+00:00", "maneuver_count": 0, "owner": "JPN"}, "187": {"norad_id": "40959", "name": "LINGQIAO VIDEO A", "tle1": "1 40959U 15057B   26163.89150682  .00000981  00000-0  14454-3 0  9991", "tle2": "2 40959  97.6618 158.9050 0015264 285.8297  74.1231 14.77388359574776", "object_type": "PAYLOAD", "criticality_score": 9.0, "last_updated": "2026-06-13T11:16:06.819600+00:00", "maneuver_count": 0, "owner": "PRC"}, "188": {"norad_id": "40960", "name": "LINGQIAO VIDEO B", "tle1": "1 40960U 15057C   26163.86848980  .00000236  00000-0  39831-4 0  9995", "tle2": "2 40960  97.6583 160.0478 0015410 285.9073  74.0439 14.77492161574814", "object_type": "PAYLOAD", "criticality_score": 9.0, "last_updated": "2026-06-13T11:16:06.819600+00:00", "maneuver_count": 0, "owner": "PRC"}, "190": {"norad_id": "40961", "name": "JILIN 1", "tle1": "1 40961U 15057D   26163.81626535  .00000790  00000-0  11571-3 0  9996", "tle2": "2 40961  97.6507 163.4000 0015338 278.8014  81.1461 14.78153768574962", "object_type": "PAYLOAD", "criticality_score": 9.0, "last_updated": "2026-06-13T11:16:06.819600+00:00", "maneuver_count": 0, "owner": "PRC"}, "369": {"norad_id": "41105", "name": "ELEKTRO-L 2", "tle1": "1 41105U 15074A   26163.04804524 -.00000106  00000-0  00000-0 0  9991", "tle2": "2 41105   6.6796  70.5874 0000807 263.0780 289.5215  1.00271076 38455", "object_type": "PAYLOAD", "criticality_score": 9.0, "last_updated": "2026-06-13T11:16:06.819600+00:00", "maneuver_count": 0, "owner": "CIS"}, "413": {"norad_id": "41556", "name": "ZY 3 2", "tle1": "1 41556U 16033A   26163.84898789  .00005268  00000-0  23721-3 0  9992", "tle2": "2 41556  97.3842 239.7062 0011348 307.2471  52.7729 15.21440997557322", "object_type": "PAYLOAD", "criticality_score": 9.0, "last_updated": "2026-06-13T11:16:06.819600+00:00", "maneuver_count": 0, "owner": "PRC"}, "436": {"norad_id": "41727", "name": "GAOFEN 3", "tle1": "1 41727U 16049A   26163.85191668 -.00000149  00000-0 -32020-4 0  9990", "tle2": "2 41727  98.4013 171.7029 0001295  98.3950 261.7387 14.42214308518025", "object_type": "PAYLOAD", "criticality_score": 9.0, "last_updated": "2026-06-13T11:16:06.819600+00:00", "maneuver_count": 0, "owner": "PRC"}, "464": {"norad_id": "41179", "name": "ORBCOMM FM 114", "tle1": "1 41179U 15081A   26162.36260887  .00000369  00000-0  11441-3 0  9996", "tle2": "2 41179  47.0059  29.5421 0002127 183.9472 176.1397 14.58851913556902", "object_type": "PAYLOAD", "criticality_score": 9.0, "last_updated": "2026-06-13T11:16:06.819600+00:00", "maneuver_count": 0, "owner": "ORB"}, "465": {"norad_id": "41182", "name": "ORBCOMM FM 110", "tle1": "1 41182U 15081D   26163.85778410  .00000666  00000-0  17699-3 0  9992", "tle2": "2 41182  47.0031  21.9133 0002645  49.9009 310.2108 14.58874429556991", "object_type": "PAYLOAD", "criticality_score": 9.0, "last_updated": "2026-06-13T11:16:06.819600+00:00", "maneuver_count": 0, "owner": "ORB"}, "466": {"norad_id": "41188", "name": "ORBCOMM FM 117", "tle1": "1 41188U 15081K   26163.80109453  .00000357  00000-0  11174-3 0  9997", "tle2": "2 41188  46.9997 201.5700 0003263 206.9100 153.1617 14.58862442559484", "object_type": "PAYLOAD", "criticality_score": 9.0, "last_updated": "2026-06-13T11:16:06.819600+00:00", "maneuver_count": 0, "owner": "ORB"}, "467": {"norad_id": "41189", "name": "ORBCOMM FM 116", "tle1": "1 41189U 15081L   26163.09673298  .00000515  00000-0  14508-3 0  9992", "tle2": "2 41189  47.0032 294.6908 0000825  26.2371 333.8557 14.58875396558193", "object_type": "PAYLOAD", "criticality_score": 9.0, "last_updated": "2026-06-13T11:16:06.819600+00:00", "maneuver_count": 0, "owner": "ORB"}, "468": {"norad_id": "41185", "name": "ORBCOMM FM 113", "tle1": "1 41185U 15081G   26163.05131900  .00000335  00000-0  10705-3 0  9998", "tle2": "2 41185  47.0017 294.9070 0001998 204.7602 155.3188 14.58853293558185", "object_type": "PAYLOAD", "criticality_score": 9.0, "last_updated": "2026-06-13T11:16:06.819600+00:00", "maneuver_count": 0, "owner": "ORB"}, "469": {"norad_id": "41184", "name": "ORBCOMM FM 112", "tle1": "1 41184U 15081F   26163.07485374  .00000491  00000-0  14001-3 0  9992", "tle2": "2 41184  47.0000 294.4222 0003430 195.8649 164.2129 14.58896525558206", "object_type": "PAYLOAD", "criticality_score": 9.0, "last_updated": "2026-06-13T11:16:06.819600+00:00", "maneuver_count": 0, "owner": "ORB"}, "470": {"norad_id": "41187", "name": "ORBCOMM FM 108", "tle1": "1 41187U 15081J   26163.83559392  .00000379  00000-0  11637-3 0  9998", "tle2": "2 41187  47.0056 202.7729 0002703 207.0496 153.0250 14.58866418559448", "object_type": "PAYLOAD", "criticality_score": 9.0, "last_updated": "2026-06-13T11:16:06.819600+00:00", "maneuver_count": 0, "owner": "ORB"}, "476": {"norad_id": "41877", "name": "RESOURCESAT 2A", "tle1": "1 41877U 16074A   26163.84786937 -.00000187  00000-0 -64971-4 0  9994", "tle2": "2 41877  98.7529 237.3875 0003362  91.5603 268.5960 14.21613725493680", "object_type": "PAYLOAD", "criticality_score": 9.0, "last_updated": "2026-06-13T11:16:06.819600+00:00", "maneuver_count": 0, "owner": "IND"}, "605": {"norad_id": "40920", "name": "COSMOS 2507", "tle1": "1 40920U 15050A   26163.88552972 -.00000054  00000-0 -46278-3 0  9991", "tle2": "2 40920  82.4921  82.3477 0010410   5.9355 354.1846 12.42926318486329", "object_type": "PAYLOAD", "criticality_score": 9.0, "last_updated": "2026-06-13T11:16:06.819600+00:00", "maneuver_count": 0, "owner": "CIS"}, "606": {"norad_id": "40921", "name": "COSMOS 2508", "tle1": "1 40921U 15050B   26163.84050943  .00000005  00000-0 -35369-4 0  9994", "tle2": "2 40921  82.4875  80.8825 0015310  35.7895 324.4207 12.42914002486308", "object_type": "PAYLOAD", "criticality_score": 9.0, "last_updated": "2026-06-13T11:16:06.819600+00:00", "maneuver_count": 0, "owner": "CIS"}, "607": {"norad_id": "40922", "name": "COSMOS 2509", "tle1": "1 40922U 15050C   26163.86074045 -.00000053  00000-0 -45312-3 0  9998", "tle2": "2 40922  82.4883  80.9718 0015804  51.7186 308.5312 12.42883273486348", "object_type": "PAYLOAD", "criticality_score": 9.0, "last_updated": "2026-06-13T11:16:06.819600+00:00", "maneuver_count": 0, "owner": "CIS"}, "631": {"norad_id": "41857", "name": "YUNHAI 1", "tle1": "1 41857U 16068A   26163.90625756  .00000347  00000-0  14348-3 0  9991", "tle2": "2 41857  98.5834 174.9527 0006338  53.5810 306.5958 14.32702813501217", "object_type": "PAYLOAD", "criticality_score": 9.0, "last_updated": "2026-06-13T11:16:06.819600+00:00", "maneuver_count": 0, "owner": "PRC"}, "664": {"norad_id": "41173", "name": "DAMPE", "tle1": "1 41173U 15078A   26163.85410447  .00001446  00000-0  51116-4 0  9991", "tle2": "2 41173  97.4558 169.2993 0013801  90.6291 269.6531 15.30775248583881", "object_type": "PAYLOAD", "criticality_score": 9.0, "last_updated": "2026-06-13T11:16:06.819600+00:00", "maneuver_count": 0, "owner": "PRC"}}}